NORAD_CAT_ID,OBJECT_NAME,OBJECT_TYPE,EPOCH,MEAN_MOTION,ECCENTRICITY,INCLINATION,RA_OF_ASC_NODE,ARG_OF_PERICENTER,MEAN_ANOMALY,BSTAR,MEAN_MOTION_DOT,MEAN_MOTION_DDOT,TLE_LINE0,TLE_LINE1,TLE_LINE2,SEMIMAJOR_AXIS,PERIOD,APOGEE,PERIGEE,DECAYED
51784.0,STARLINK-3632,PAYLOAD,2022-06-19 14:00:01,15.08872458,0.0001556,53.2158,330.3824,52.6086,127.1744,-0.0041003,-0.00065013,0.0,0 STARLINK-3632,1 51784U 22017S   22170.58334491 -.00065013  00000-0 -41003-2 0  9993,2 51784  53.2158 330.3824 0001556  52.6086 127.1744 15.08872458  1306,6917.781,95.436,540.7230000000002,538.57,0.0
51784.0,STARLINK-3632,PAYLOAD,2022-06-19 20:00:01,15.08813099,0.0001636999999999,53.2155,329.2612,46.2748,52.2276,0.0025462,0.00040438,0.0,0 STARLINK-3632,1 51784U 22017S   22170.83334491  .00040438  00000-0  25462-2 0  9994,2 51784  53.2155 329.2612 0001637  46.2748  52.2276 15.08813099 18783,6917.9630000000025,95.439,540.96,538.695,0.0
51784.0,STARLINK-3632,PAYLOAD,2022-06-19 22:00:00,15.08813527,0.0001641999999999,53.2152,328.88699999999994,44.5699,146.8274,0.0031775,0.00050609,0.0,0 STARLINK-3632,1 51784U 22017S   22170.91667824  .00050609  00000-0  31775-2 0  9997,2 51784  53.2152 328.8870 0001642  44.5699 146.8274 15.08813527  1307,6917.9609999999975,95.439,540.962,538.69,0.0
51784.0,STARLINK-3632,PAYLOAD,2022-06-20 12:00:00,15.08860995,0.0001578,53.2153,326.2669,55.1464,66.5284,-0.0028641,-0.00045608,0.0,0 STARLINK-3632,1 51784U 22017S   22171.50001157 -.00045608  00000-0 -28641-2 0  9997,2 51784  53.2153 326.2669 0001578  55.1464  66.5284 15.08860995 18883,6917.816,95.436,540.773,538.59,0.0
51784.0,STARLINK-3632,PAYLOAD,2022-06-20 14:00:01,15.08852109,0.0001623,53.2152,325.8934,53.0728,161.5064,-0.0026984,-0.00042991,0.0,0 STARLINK-3632,1 51784U 22017S   22171.58334491 -.00042991  00000-0 -26984-2 0  9995,2 51784  53.2152 325.8934 0001623  53.0728 161.5064 15.08852109  1302,6917.843000000003,95.437,540.831,538.586,0.0
51784.0,STARLINK-3632,PAYLOAD,2022-06-20 22:00:00,15.08817425,0.0001756,53.2147,324.3979,47.7089,178.46599999999995,0.0027137,0.00043139,0.0,0 STARLINK-3632,1 51784U 22017S   22171.91667824  .00043139  00000-0  27137-2 0  9995,2 51784  53.2147 324.3979 0001756  47.7089 178.4660 15.08817425  1307,6917.949000000001,95.439,541.029,538.6,0.0
51784.0,STARLINK-3632,PAYLOAD,2022-06-21 06:00:00,15.08772693,0.0001748,53.2164,322.8976,53.2947,184.4845,0.0032636,0.00051939,0.0,0 STARLINK-3632,1 51784U 22017S   22172.25001157  .00051939  00000-0  32636-2 0  9991,2 51784  53.2164 322.8976 0001748  53.2947 184.4845 15.08772693 19007,6918.0859999999975,95.442,541.16,538.742,0.0
51784.0,STARLINK-3632,PAYLOAD,2022-06-21 14:00:01,15.08835145,0.0001808,53.2147,321.4043,55.5318,193.796,-0.00098372,-0.00015908,0.0,0 STARLINK-3632,1 51784U 22017S   22172.58334491 -.00015908  00000-0 -98372-3 0  9995,2 51784  53.2147 321.4043 0001808  55.5318 193.7960 15.08835145  1309,6917.895,95.438,541.011,538.509,0.0
51784.0,STARLINK-3632,PAYLOAD,2022-06-21 22:00:00,15.08822796,0.0001891,53.2143,319.9085,49.9869,210.9241,0.00215,0.00034079,0.0,0 STARLINK-3632,1 51784U 22017S   22172.91667824  .00034079  00000-0  21500-2 0  9997,2 51784  53.2143 319.9085 0001891  49.9869 210.9241 15.08822796  1305,6917.933000000001,95.439,541.106,538.49,0.0
51784.0,STARLINK-3632,PAYLOAD,2022-06-22 06:00:00,15.0882244,0.0001736,53.2145,318.4102,55.2204,217.2863,0.002726,0.00043343,0.0,0 STARLINK-3632,1 51784U 22017S   22173.25001157  .00043343  00000-0  27260-2 0  9999,2 51784  53.2145 318.4102 0001736  55.2204 217.2863 15.08822440 19150,6917.934,95.439,541.0,538.5980000000002,0.0
51784.0,STARLINK-3632,PAYLOAD,2022-06-22 14:00:01,15.08853976,0.000181,53.2147,316.9148,53.0634,231.0321,-0.0029143,-0.00046389,0.0,0 STARLINK-3632,1 51784U 22017S   22173.58334491 -.00046389  00000-0 -29143-2 0  9992,2 51784  53.2147 316.9148 0001810  53.0634 231.0321 15.08853976  1300,6917.8380000000025,95.437,540.955,538.451,0.0
51784.0,STARLINK-3632,PAYLOAD,2022-06-22 22:00:00,15.08828036,0.0001854,53.2145,315.4189,47.066,248.6228,0.0014891,0.00023483,0.0,0 STARLINK-3632,1 51784U 22017S   22173.91667824  .00023483  00000-0  14891-2 0  9990,2 51784  53.2145 315.4189 0001854  47.0660 248.6228 15.08828036  1306,6917.917,95.438,541.065,538.499,0.0
51784.0,STARLINK-3632,PAYLOAD,2022-06-23 00:00:02,15.0884962,0.0001836,53.2146,315.0442,47.9156,340.7275,-0.0011133,-0.00017967,0.0,0 STARLINK-3632,1 51784U 22017S   22174.00002315 -.00017967  00000-0 -11133-2 0  9997,2 51784  53.2146 315.0442 0001836  47.9156 340.7275 15.08849620 19266,6917.851,95.437,540.986,538.446,0.0
51784.0,STARLINK-3632,PAYLOAD,2022-06-23 14:00:01,15.08815088,0.0001751,53.2167,312.4233,49.9986,268.8973,-0.00016207,-2.865e-05,0.0,0 STARLINK-3632,1 51784U 22017S   22174.58334491 -.00002865  00000-0 -16207-3 0  9992,2 51784  53.2167 312.4233 0001751  49.9986 268.8973 15.08815088  1309,6917.956999999999,95.439,541.033,538.61,0.0
51784.0,STARLINK-3632,PAYLOAD,2022-06-23 22:00:00,15.08836052,0.0001817,53.2148,310.9292,44.8408,285.6344,0.00084119,0.00013123,0.0,0 STARLINK-3632,1 51784U 22017S   22174.91667824  .00013123  00000-0  84119-3 0  9992,2 51784  53.2148 310.9292 0001817  44.8408 285.6344 15.08836052 19405,6917.892,95.438,541.014,538.5,0.0
51784.0,STARLINK-3632,PAYLOAD,2022-06-24 14:00:01,15.08835901,0.0001877,53.2154,307.9359,51.5548,302.1035,-0.001821,-0.0002915,0.0,0 STARLINK-3632,1 51784U 22017S   22175.58334491 -.00029150  00000-0 -18210-2 0  9994,2 51784  53.2154 307.9359 0001877  51.5548 302.1035 15.08835901 19503,6917.893,95.438,541.056,538.4590000000002,0.0
51784.0,STARLINK-3632,PAYLOAD,2022-06-24 22:00:01,15.08831665,0.0001907,53.2151,306.4395,48.0521,317.2464,3.1832e-05,2.18e-06,0.0,0 STARLINK-3632,1 51784U 22017S   22175.91668981  .00000218  00000-0  31832-4 0  9994,2 51784  53.2151 306.4395 0001907  48.0521 317.2464 15.08831665  1305,6917.906,95.438,541.09,538.452,0.0
51784.0,STARLINK-3632,PAYLOAD,2022-06-25 06:00:00,15.08807246,0.0001730999999999,53.2154,304.9416,55.2879,321.5383,0.0033703,0.00053711,0.0,0 STARLINK-3632,1 51784U 22017S   22176.25001157  .00053711  00000-0  33703-2 0  9991,2 51784  53.2154 304.9416 0001731  55.2879 321.5383 15.08807246 19604,6917.981,95.44,541.043,538.648,0.0
51784.0,STARLINK-3632,PAYLOAD,2022-06-25 14:00:01,15.0885035,0.0001869,53.2156,303.4466,51.826,336.5794,-0.0011867,-0.0001913,0.0,0 STARLINK-3632,1 51784U 22017S   22176.58334491 -.00019130  00000-0 -11867-2 0  9993,2 51784  53.2156 303.4466 0001869  51.8260 336.5794 15.08850350  1307,6917.849,95.437,541.007,538.4209999999998,0.0
51784.0,STARLINK-3632,PAYLOAD,2022-06-25 22:00:00,15.08858868,0.0001878,53.2152,301.9501,48.5321,351.4755,-0.00019623,-3.412e-05,0.0,0 STARLINK-3632,1 51784U 22017S   22176.91667824 -.00003412  00000-0 -19623-3 0  9994,2 51784  53.2152 301.9501 0001878  48.5321 351.4755 15.08858868 19705,6917.823,95.436,540.987,538.389,0.0
51784.0,STARLINK-3632,PAYLOAD,2022-06-26 08:00:01,15.08830143,0.0001628,53.2157,300.0783,55.1147,89.3664,0.0018049,0.00028546,0.0,0 STARLINK-3632,1 51784U 22017S   22177.33334491  .00028546  00000-0  18049-2 0  9995,2 51784  53.2157 300.0783 0001628  55.1147  89.3664 15.08830143 19763,6917.911,95.438,540.9019999999998,538.649,0.0
51784.0,STARLINK-3632,PAYLOAD,2022-06-26 14:00:01,15.08850531,0.0001751999999999,53.2155,298.9575,49.5712,13.667,-0.00086819,-0.00014083,0.0,0 STARLINK-3632,1 51784U 22017S   22177.58335648 -.00014083  00000-0 -86819-3 0  9991,2 51784  53.2155 298.9575 0001752  49.5712  13.6670 15.08850531  1309,6917.848000000001,95.437,540.925,538.501,0.0
51784.0,STARLINK-3632,PAYLOAD,2022-06-26 22:00:00,15.08860605,0.0001737,53.215,297.4609,46.5236,28.2487,-0.00080054,-0.00013013,0.0,0 STARLINK-3632,1 51784U 22017S   22177.91667824 -.00013013  00000-0 -80054-3 0  9999,2 51784  53.2150 297.4609 0001737  46.5236  28.2487 15.08860605  1308,6917.816999999999,95.436,540.884,538.481,0.0
51784.0,STARLINK-3632,PAYLOAD,2022-06-27 06:00:00,15.08834856,0.0001526,53.2152,295.9631,53.0022,33.3886,0.00071541,0.00011114,0.0,0 STARLINK-3632,1 51784U 22017S   22178.25001157  .00011114  00000-0  71541-3 0  9997,2 51784  53.2152 295.9631 0001526  53.0022  33.3886 15.08834856 19904,6917.896,95.438,540.817,538.705,0.0
51784.0,STARLINK-3632,PAYLOAD,2022-06-27 14:00:01,15.08839652,0.0001653,53.2151,294.4685,48.1117,49.8692,-0.00092112,-0.00014918,0.0,0 STARLINK-3632,1 51784U 22017S   22178.58334491 -.00014918  00000-0 -92112-3 0  9997,2 51784  53.2151 294.4685 0001653  48.1117  49.8692 15.08839652  1308,6917.880999999999,95.438,540.89,538.6030000000002,0.0
51784.0,STARLINK-3632,PAYLOAD,2022-06-27 22:00:00,15.08861045,0.0001683,53.2147,292.9718,46.1408,63.4264,-0.0024095,-0.00038453,0.0,0 STARLINK-3632,1 51784U 22017S   22178.91667824 -.00038453  00000-0 -24095-2 0  9997,2 51784  53.2147 292.9718 0001683  46.1408  63.4264 15.08861045  1305,6917.816,95.436,540.845,538.5169999999998,0.0
51784.0,STARLINK-3632,PAYLOAD,2022-06-28 06:00:00,15.08809527,0.0001587,53.2149,291.474,55.1999,65.971,0.0015703,0.00024771,0.0,0 STARLINK-3632,1 51784U 22017S   22179.25001157  .00024771  00000-0  15703-2 0  9998,2 51784  53.2149 291.4740 0001587  55.1999  65.9710 15.08809527 20057,6917.974,95.439,540.936,538.741,0.0
51784.0,STARLINK-3632,PAYLOAD,2022-06-28 14:00:01,15.08822878,0.0001764999999999,53.2148,289.9795,50.9201,81.818,-0.00075656,-0.00012303,0.0,0 STARLINK-3632,1 51784U 22017S   22179.58334491 -.00012303  00000-0 -75656-3 0  9998,2 51784  53.2148 289.9795 0001765  50.9201  81.8180 15.08822878  1304,6917.933000000001,95.439,541.019,538.577,0.0
51784.0,STARLINK-3632,PAYLOAD,2022-06-28 22:00:00,15.08836948,0.000175,53.2145,288.4827,48.89,95.4128,-0.0015399,-0.0002471,0.0,0 STARLINK-3632,1 51784U 22017S   22179.91667824 -.00024710  00000-0 -15399-2 0  9996,2 51784  53.2145 288.4827 0001750  48.8900  95.4128 15.08836948  1303,6917.89,95.438,540.965,538.544,0.0
